STARLETTE               
1 07646U 75010A   22091.40494931 -.00000148  00000+0 -22657-5 0  9995
2 07646  49.8244  54.3142 0205676  23.0473 337.9489 13.82311337381827
LAGEOS 1                
1 08820U 76039A   22091.56936961 -.00000011  00000+0  00000+0 0  9993
2 08820 109.8627  12.6552 0045066 271.2346 234.4618  6.38665077814942
AJISAI (EGS)            
1 16908U 86061A   22091.57250340 -.00000088  00000+0  66274-4 0  9990
2 16908  50.0083 195.4372 0011334 225.8942 229.2597 12.44495855288929
COSMOS 1989 (ETALON 1)  
1 19751U 89001C   22091.48844563  .00000057  00000+0  00000+0 0  9997
2 19751  64.2843 125.0338 0023693 213.1013 222.1143  2.13156326258591
COSMOS 2024 (ETALON 2)  
1 20026U 89039C   22091.03781128 -.00000087  00000+0  00000+0 0  9997
2 20026  65.5467   3.0069 0018357 219.1075 127.1915  2.13204290255700
LAGEOS 2                
1 22195U 92070B   22090.63158160 -.00000009  00000+0  00000+0 0  9998
2 22195  52.6437 158.9874 0137869 234.8199 271.3421  6.47294066695813
STELLA                  
1 22824U 93061B   22089.55199341 -.00000033  00000+0  54544-5 0  9998
2 22824  98.9714 108.4462 0006870  32.0973  87.1110 14.27388756485127
LARES                   
1 38077U 12006A   22091.27668713 -.00000014  00000+0  15373-3 0  9995
2 38077  69.4946  39.1268 0006694  44.2908 315.8665 12.54931364464226